NORAD_CAT_ID,OBJECT_NAME,OBJECT_TYPE,EPOCH,MEAN_MOTION,ECCENTRICITY,INCLINATION,RA_OF_ASC_NODE,ARG_OF_PERICENTER,MEAN_ANOMALY,BSTAR,MEAN_MOTION_DOT,MEAN_MOTION_DDOT,TLE_LINE0,TLE_LINE1,TLE_LINE2,SEMIMAJOR_AXIS,PERIOD,APOGEE,PERIGEE,DECAYED
52862.0,STARLINK-4010,PAYLOAD,2022-12-31 07:20:18,15.0883829,0.0002138,53.2167,211.2349,45.8043,314.3125,0.00013469,1.856e-05,0.0,0 STARLINK-4010,1 52862U 22062AJ  22365.30577059  .00001856  00000-0  13469-3 0  9995,2 52862  53.2167 211.2349 0002138  45.8043 314.3125 15.08838290 30140,6917.886,95.438,541.23,538.2719999999998,0.0
52862.0,STARLINK-4010,PAYLOAD,2022-12-31 20:03:23,15.08841484,0.0002121999999999,53.2166,208.8558,45.5805,314.536,0.00026478,3.929e-05,0.0,0 STARLINK-4010,1 52862U 22062AJ  22365.83568891  .00003929  00000-0  26478-3 0  9994,2 52862  53.2166 208.8558 0002122  45.5805 314.5360 15.08841484 30714,6917.876,95.437,541.2090000000002,538.273,0.0
52862.0,STARLINK-4010,PAYLOAD,2023-01-01 13:32:38,15.0884253,0.0002209,53.2158,205.5851,46.9561,313.1616,0.00017847,2.553e-05,0.0,0 STARLINK-4010,1 52862U 22062AJ  23001.56433337  .00002553  00000-0  17847-3 0  9990,2 52862  53.2158 205.5851 0002209  46.9561 313.1616 15.08842530 30829,6917.873000000001,95.437,541.266,538.2090000000002,0.0
52862.0,STARLINK-4010,PAYLOAD,2023-01-01 19:54:10,15.08843067,0.0002236,53.2158,204.3956,47.3736,312.7444,0.00013362,1.839e-05,0.0,0 STARLINK-4010,1 52862U 22062AJ  23001.82929280  .00001839  00000-0  13362-3 0  9990,2 52862  53.2158 204.3956 0002236  47.3736 312.7444 15.08843067 30371,6917.871,95.437,541.283,538.189,0.0
52862.0,STARLINK-4010,PAYLOAD,2023-01-02 13:23:24,15.08848892,0.0002211999999999,53.2159,201.124,49.1483,310.9701,0.00011217,1.498e-05,0.0,0 STARLINK-4010,1 52862U 22062AJ  23002.55792698  .00001498  00000-0  11217-3 0  9990,2 52862  53.2159 201.1240 0002212  49.1483 310.9701 15.08848892 30485,6917.853,95.437,541.248,538.188,0.0
52862.0,STARLINK-4010,PAYLOAD,2023-01-02 21:20:20,15.08844012,0.0002239,53.2157,199.6372,50.5639,309.5551,-1.2959e-06,-3.09e-06,0.0,0 STARLINK-4010,1 52862U 22062AJ  23002.88912762 -.00000309  00000-0 -12959-5 0  9990,2 52862  53.2157 199.6372 0002239  50.5639 309.5551 15.08844012 31026,6917.868,95.437,541.2819999999998,538.184,0.0
52862.0,STARLINK-4010,PAYLOAD,2023-01-03 13:14:12,15.08835021,0.0002142,53.2163,196.6637,45.3248,314.7918,5.2714e-05,5.51e-06,0.0,0 STARLINK-4010,1 52862U 22062AJ  23003.55153369  .00000551  00000-0  52714-4 0  9994,2 52862  53.2163 196.6637 0002142  45.3248 314.7918 15.08835021 31121,6917.896,95.438,541.242,538.279,0.0
52862.0,STARLINK-4010,PAYLOAD,2023-01-04 11:29:35,15.08849385,0.0002156,53.2159,192.5003,47.3189,312.7984,1.4045e-05,-6.5e-07,0.0,0 STARLINK-4010,1 52862U 22062AJ  23004.47888722 -.00000065  00000-0  14045-4 0  9990,2 52862  53.2159 192.5003 0002156  47.3189 312.7984 15.08849385 31263,6917.852,95.437,541.2080000000002,538.225,0.0
52862.0,STARLINK-4010,PAYLOAD,2023-01-04 19:26:31,15.08848659,0.0002174999999999,53.2163,191.0135,47.8652,312.2525,9.0777e-05,1.157e-05,0.0,0 STARLINK-4010,1 52862U 22062AJ  23004.81008473  .00001157  00000-0  90777-4 0  9993,2 52862  53.2163 191.0135 0002175  47.8652 312.2525 15.08848659 30829,6917.854,95.437,541.224,538.214,0.0
52862.0,STARLINK-4010,PAYLOAD,2023-01-05 12:55:45,15.08852489,0.0002223,53.2156,187.7425,48.1572,311.9609,0.00022187,3.246e-05,0.0,0 STARLINK-4010,1 52862U 22062AJ  23005.53871993  .00003246  00000-0  22187-3 0  9998,2 52862  53.2156 187.7425 0002223  48.1572 311.9609 15.08852489 31426,6917.842,95.437,541.245,538.169,0.0
52862.0,STARLINK-4010,PAYLOAD,2023-01-05 14:31:08,15.08854402,0.0002223,53.2153,187.4451,48.2233,311.8949,0.00024809,3.664e-05,0.0,0 STARLINK-4010,1 52862U 22062AJ  23005.60495867  .00003664  00000-0  24809-3 0  9995,2 52862  53.2153 187.4451 0002223  48.2233 311.8949 15.08854402 30943,6917.8359999999975,95.437,541.239,538.164,0.0
52862.0,STARLINK-4010,PAYLOAD,2023-01-06 06:25:00,15.08843916,0.0002245,53.2155,184.4718,46.6868,313.4311,4.5593e-05,4.37e-06,0.0,0 STARLINK-4010,1 52862U 22062AJ  23006.26736189  .00000437  00000-0  45593-4 0  9992,2 52862  53.2155 184.4718 0002245  46.6868 313.4311 15.08843916 31533,6917.868,95.437,541.286,538.18,0.0
52862.0,STARLINK-4010,PAYLOAD,2023-01-06 14:21:56,15.08834058,0.0002009,53.2154,182.984,51.702,308.4152,-0.00012371,-2.256e-05,0.0,0 STARLINK-4010,1 52862U 22062AJ  23006.59856626 -.00002256  00000-0 -12371-3 0  9997,2 52862  53.2154 182.9840 0002009  51.7020 308.4152 15.08834058 31585,6917.899,95.438,541.153,538.374,0.0
52862.0,STARLINK-4010,PAYLOAD,2023-01-07 04:40:24,15.0884144,0.000217,53.2167,180.308,47.6387,312.4789,-1.2048e-05,-4.8e-06,0.0,0 STARLINK-4010,1 52862U 22062AJ  23007.19472831 -.00000480  00000-0 -12048-4 0  9995,2 52862  53.2167 180.3080 0002170  47.6387 312.4789 15.08841440 31186,6917.876,95.437,541.242,538.24,0.0
52862.0,STARLINK-4010,PAYLOAD,2023-01-07 11:01:56,15.08856105,0.0002102,53.2168,179.1185,47.9968,312.1202,-0.00016001,-2.835e-05,0.0,0 STARLINK-4010,1 52862U 22062AJ  23007.45968393 -.00002835  00000-0 -16001-3 0  9995,2 52862  53.2168 179.1185 0002102  47.9968 312.1202 15.08856105 31712,6917.831,95.437,541.15,538.242,0.0
52862.0,STARLINK-4010,PAYLOAD,2023-01-07 20:34:15,15.08850762,0.0002181,53.2168,177.3345,43.3697,316.7466,8.4895e-06,-1.53e-06,0.0,0 STARLINK-4010,1 52862U 22062AJ  23007.85712004 -.00000153  00000-0  84895-5 0  9993,2 52862  53.2168 177.3345 0002181  43.3697 316.7466 15.08850762 31283,6917.847,95.437,541.221,538.2040000000002,0.0
52862.0,STARLINK-4010,PAYLOAD,2023-01-08 10:52:43,15.08844302,0.0002181,53.2168,174.6584,48.1038,312.014,0.00021992,3.214e-05,0.0,0 STARLINK-4010,1 52862U 22062AJ  23008.45327814  .00003214  00000-0  21992-3 0  9998,2 52862  53.2168 174.6584 0002181  48.1038 312.0140 15.08844302 31371,6917.866999999998,95.437,541.241,538.2230000000002,0.0
52862.0,STARLINK-4010,PAYLOAD,2023-01-08 20:25:02,15.08839202,0.0002197,53.2167,172.8744,49.209,310.9092,0.00014498,2.02e-05,0.0,0 STARLINK-4010,1 52862U 22062AJ  23008.85072453  .00002020  00000-0  14498-3 0  9995,2 52862  53.2167 172.8744 0002197  49.2090 310.9092 15.08839202 31922,6917.883000000002,95.438,541.268,538.2280000000002,0.0
52862.0,STARLINK-4010,PAYLOAD,2023-01-09 10:43:30,15.08844703,0.0002286,53.2173,170.1991,49.8659,310.2534,8.950100000000001e-05,1.137e-05,0.0,0 STARLINK-4010,1 52862U 22062AJ  23009.44688178  .00001137  00000-0  89501-4 0  9994,2 52862  53.2173 170.1991 0002286  49.8659 310.2534 15.08844703 31522,6917.866,95.437,541.312,538.15,0.0
52862.0,STARLINK-4010,PAYLOAD,2023-01-09 20:15:49,15.08844608,0.0002307,53.2175,168.4147,50.6265,309.4932,4.9414e-05,4.98e-06,0.0,0 STARLINK-4010,1 52862U 22062AJ  23009.84432156  .00000498  00000-0  49414-4 0  9999,2 52862  53.2175 168.4147 0002307  50.6265 309.4932 15.08844608 31586,6917.866,95.437,541.327,538.135,0.0
52862.0,STARLINK-4010,PAYLOAD,2023-01-10 20:06:36,15.08845263,0.0002261,53.2158,163.9539,45.6781,314.4396,0.00010416,1.3699999999999998e-05,0.0,0 STARLINK-4010,1 52862U 22062AJ  23010.83791824  .00001370  00000-0  10416-3 0  9999,2 52862  53.2158 163.9539 0002261  45.6781 314.4396 15.08845263 32228,6917.864000000001,95.437,541.293,538.165,0.0
52862.0,STARLINK-4010,PAYLOAD,2023-01-11 13:35:52,15.08826354,0.0002022,53.2157,160.6825,59.5393,300.5798,-1.3352e-05,-5.01e-06,0.0,0 STARLINK-4010,1 52862U 22062AJ  23011.56657589 -.00000501  00000-0 -13352-4 0  9999,2 52862  53.2157 160.6825 0002022  59.5393 300.5798 15.08826354 32331,6917.922,95.438,541.186,538.388,0.0
52862.0,STARLINK-4010,PAYLOAD,2023-01-11 16:46:38,15.08828288,0.0002037,53.216,160.089,44.1237,315.9917,2.9945e-05,1.88e-06,0.0,0 STARLINK-4010,1 52862U 22062AJ  23011.69905554  .00000188  00000-0  29945-4 0  9995,2 52862  53.2160 160.0890 0002037  44.1237 315.9917 15.08828288 31862,6917.916,95.438,541.19,538.372,0.0
52862.0,STARLINK-4010,PAYLOAD,2023-01-12 18:12:48,15.08837252,0.0002109,53.2161,155.3305,44.9153,315.2009,0.0001262999999999,1.722e-05,0.0,0 STARLINK-4010,1 52862U 22062AJ  23012.75889539  .00001722  00000-0  12630-3 0  9994,2 52862  53.2161 155.3305 0002109  44.9153 315.2009 15.08837252 32515,6917.889,95.438,541.2130000000002,538.295,0.0
52862.0,STARLINK-4010,PAYLOAD,2023-01-13 02:09:44,15.08831429,0.0002354,53.2174,153.8424,46.8849,313.2339,0.00018284,2.622e-05,0.0,0 STARLINK-4010,1 52862U 22062AJ  23013.09010173  .00002622  00000-0  18284-3 0  9993,2 52862  53.2174 153.8424 0002354  46.8849 313.2339 15.08831429 32568,6917.906999999998,95.438,541.4,538.143,0.0
52862.0,STARLINK-4010,PAYLOAD,2023-01-13 13:17:26,15.08833221,0.0001764999999999,53.2167,151.7624,47.9468,312.1674,0.00014836,2.073e-05,0.0,0 STARLINK-4010,1 52862U 22062AJ  23013.55378270  .00002073  00000-0  14836-3 0  9998,2 52862  53.2167 151.7624 0001765  47.9468 312.1674 15.08833221 32149,6917.901,95.438,540.987,538.545,0.0
52862.0,STARLINK-4010,PAYLOAD,2023-01-13 18:03:35,15.08841976,0.0002236,53.2145,150.8685,47.5066,312.6114,0.00021702,3.168e-05,0.0,0 STARLINK-4010,1 52862U 22062AJ  23013.75249976  .00003168  00000-0  21702-3 0  9996,2 52862  53.2145 150.8685 0002236  47.5066 312.6114 15.08841976 32179,6917.874,95.437,541.286,538.193,0.0
52862.0,STARLINK-4010,PAYLOAD,2023-01-14 08:22:04,15.08838345,0.0002092,53.2139,148.1927,56.6381,303.4812,0.00010837,1.437e-05,0.0,0 STARLINK-4010,1 52862U 22062AJ  23014.34866255  .00001437  00000-0  10837-3 0  9991,2 52862  53.2139 148.1927 0002092  56.6381 303.4812 15.08838345 32755,6917.885,95.438,541.198,538.303,0.0
52862.0,STARLINK-4010,PAYLOAD,2023-01-15 12:59:01,15.08835002,0.0001809,53.215,142.8437,63.7576,296.3602,2.498e-05,1.09e-06,0.0,0 STARLINK-4010,1 52862U 22062AJ  23015.54098471  .00000109  00000-0  24980-4 0  9991,2 52862  53.2150 142.8437 0001809  63.7576 296.3602 15.08835002 32939,6917.896,95.438,541.012,538.509,0.0
